#dP2024 12 25  0  0  0.00000000      97 __u+U IGS20 FIT  IAC
## 2346 259200.00000000   900.00000000 60669 0.0000000000000
+  118   C06C07C08C09C10C11C12C13C14C16C19C20C21C22C23C24C25
+        C26C27C28C29C30C32C33C34C35C36C37C38C39C40C41C42C43
+        C44C45E02E03E04E05E06E07E08E09E10E11E12E13E14E15E18
+        E19E21E24E25E26E27E29E30E31E33E34E36G02G03G04G05G06
+        G07G08G09G10G11G12G13G14G15G16G17G18G19G20G21G22G23
+        G24G25G26G27G28G29G30G31G32J02J03J04R01R02R03R04R05
+        R07R08R09R11R12R14R15R16R17R18R19R20R21R22R24R26  0
++         7  7  7  7  7  7  7  7  9  7  6  6  5  5  5  6  5
++         5  6  5  6  6  5  6  6  5  6  5  6  6  6  5  6  6
++         6  6  4  4  4  4  4  4  4  4  4  4  4  4  4  4  4
++         4  4  4  4  4  4  4  4  4  4  4  4  3  3  3  4  3
++         3  4  5  3  3  3  3  3  3  4  3  3  3  3  3  3  3
++         3  3  3  4  3  4  3  3  3 10 11 10  7  6  6  6  6
++         6  6  7  6  6  6  6  7  6  6  8  8  7  7  6  7  0
%c M  cc GPS ccc cccc cccc cccc cccc ccccc ccccc ccccc ccccc
%c cc cc ccc ccc cccc cccc cccc cccc ccccc ccccc ccccc ccccc
%f  1.2500000  1.025000000  0.00000000000  0.000000000000000
%f  0.0000000  0.000000000  0.00000000000  0.000000000000000
%i    0    0    0    0      0      0      0      0         0
%i    0    0    0    0      0      0      0      0         0
/* INFORMATION & ANALYSIS CENTER (IAC)            FINAL DATA
/* S/V CLOCKS ARE ALIGNED TO GNSS TIME                      
/* G:C1WC2W R:C1PC2P E:C1XC5X C:C2IC6I J:C1CC2S             
/* PCV:IGS20_2317 OL/AL:FES2004  NONE     YN ORB:CoN CLK:CoN
*  2024 12 25 13  0  0.00000000
PC06  -1526.321279  33061.158368 -25859.001576    587.869439
PC07 -14217.708341  28042.155238  28115.863234    -94.742319
PC08 -15157.883902  38992.490951  -6218.184885    267.888445
PC09   4542.813774  36604.864798 -19306.118594   -834.789259
PC10  -5437.793613  28613.476928  30728.751805   -355.618197
PC11  20141.601768  -2032.314183 -19131.195463    305.906342
PC12  24507.872075  12803.512567  -3699.908518   -228.843443
PC13 -10917.667289  39505.086944 -10330.261911     74.911939
PC14  25096.741657 -12078.998762  -2149.030228   -582.295320
PC16  -2853.584496  31577.428780 -27303.324601     -4.157463
PC19 -21102.237077  16828.084665  -7024.614904   -966.252060
PC20 -25389.657718   6558.244838   9513.626558   -884.523886
PC21  14627.504142   8857.349465 -22046.183088   -907.537027
PC22  -4399.251716  18165.497988 -20721.498201    214.854086
PC23    760.854506 -27889.554588    263.799337   -928.751588
PC24  16333.216332   1034.019722  22578.786336    718.620056
PC25  11668.762205 -19430.391466  16248.996731    598.175826
PC26  11470.438129  19919.168353  15824.380375   -396.242087
PC27 -21115.488252 -17439.213103  -5404.388509    414.496478
PC28  -7830.607672 -19766.659277 -18067.142554    323.808712
PC29 -13882.513625  10099.953771  21999.466443    380.130327
PC30 -25228.347042  -5529.631374  10592.239115     62.375009
PC32 -14568.868469  -8865.733385  22098.676966   -853.629034
PC33  21049.595911 -16965.089645   6947.776604   -947.118913
PC34  24800.450908   4028.147783 -12130.967584    593.137388
PC35   7696.083164  19408.355392  18485.748227    171.944236
PC36 -11937.540688  19498.103725 -16002.727911    242.684487
PC37 -10867.454458 -20412.086808 -15600.551341   -898.569540
PC38 -18214.871843  38048.131950   2092.202374    199.066854
PC39  -6825.613089  27503.961432 -31088.856440    -10.642646
PC40 -19627.410734  21606.870539  30307.506348   -110.532899
PC41   5375.551306 -18484.138004  20261.691659   -883.739625
PC42  25048.873211  -5207.715419 -11138.871934   -548.251926
PC43  14757.199803  -9542.601561 -21681.122102     96.343919
PC44  21696.498437  16639.485704   5487.560199    691.644136
PC45  -1290.597772  27879.656258   -839.916498   -195.275830
PE02  -5410.196009  24755.934576  15305.936771    184.993787
PE03   2624.370909  17110.072926 -24019.962949   -162.238448
PE04 -22942.522836 -12419.939368  13987.182871   -115.689264
PE05 -18789.910141  11629.226270 -19695.892694   4813.321006
PE06 -28279.826995  -7021.640312   5221.031403    -62.685193
PE07  29376.086420    878.855324   3558.530765   -160.058618
PE08  22405.914401  12686.914637 -14612.993085   -389.659529
PE09 -29369.609495   -959.239995  -3519.543706   -713.179521
PE10 -18703.206578 -14245.975171  17985.276698   -678.782306
PE11 -17805.436573  -3081.407640  23446.528350     61.175087
PE12 -16829.309334 -21922.194306  10631.078227  -1356.235851
PE13  17867.099421   3728.060340 -23288.774507    -28.339956
PE14  10041.107227 -18019.031365 -22028.756104    510.990393
PE15  16536.275348  22439.115665  -9935.057989   -147.098072
PE18  10380.549880  17271.738319  18854.970771    923.612860
PE19   -502.123812 -16884.654018  24310.083563   1136.410171
PE21  18885.848856 -22685.374815   2150.752674   -636.211868
PE24 -21748.019697   7028.016094 -18845.955427  -1174.888428
PE25 -19112.268807  22460.530779  -2606.650848     12.605537
PE26   8552.023139 -17244.190043 -22472.951747   -173.147511
PE27  21675.419605  -7112.819833  18848.729763   -538.890576
PE29  18481.546302 -11899.489015  19810.387380    -56.571823
PE30  11744.796116  12385.862544  24168.168775  -1065.962780
PE31 -11654.851368 -12429.592948 -24203.699186    -47.970189
PE33  -5231.218240 -27575.822683  -9383.064236     16.404646
PE34   5560.240282  27641.948001   9027.613376   -153.757793
PE36  -8771.006846  16738.815831  22790.957987   -329.806339
PG02 -19227.415926  -7703.711364  17307.288734   -283.735635
PG03 -17827.492178   4896.466011  18860.571644    632.436143
PG04 -26558.365134   -415.118338  -2083.138884    501.524679
PG05  11112.699338  10535.421687 -21870.680775   -197.060034
PG06   3830.960258  23743.269450  11208.791734    -70.460203
PG07 -12545.957629   8678.055393 -21187.069428    -14.576996
PG08 -24233.796605  -6631.463705  -9419.407908    446.557804
PG09 -23577.943920   6957.702595 -10240.984802    501.812415
PG10   9077.827407 -23687.238748   7486.022493   -248.872215
PG11  12139.677518  23626.891183  -1211.252125   -752.703879
PG12  17358.778962   -392.268999  19798.834239   -560.508827
PG13  17649.992761  13513.482639 -14949.038729    691.220376
PG14 -12149.288610  23217.087923   3512.030823    567.159169
PG15  24769.910398   3913.870856  -9488.544413    243.777511
PG16  -6438.055609 -15595.684941 -20759.843217    -94.426380
PG17 -10305.568593  13518.058899  20868.722493    504.002211
PG18  10691.182820 -11217.586947 -21509.277672   -659.730636
PG19   1712.364898  15297.492966  21543.939437    578.133190
PG20   3872.844198  20833.409148 -16010.099577    367.604822
PG21 -19703.870367 -14176.277742  12363.055963     98.243636
PG22  -7315.348233  23113.221181  11590.291595    -88.538388
PG23  16647.790649 -19376.546400  -6769.920850    390.631175
PG24  19681.573393   9972.518652  14597.484012   -470.444626
PG25  18569.491200 -13952.756419  12277.945730    497.674925
PG26    458.389614 -22855.410187 -13373.435880    -22.138408
PG27 -15644.742328 -12820.225951 -17741.148353    -33.843066
PG28  -3000.021475 -23115.956670  12716.593191   -517.906205
PG29  23924.174628  -4770.957481 -10696.943014   -552.943968
PG30  -3925.240140  19583.825111 -17226.407487   -253.732604
PG31  -9644.939452 -24280.411406   3269.461683   -219.282281
PG32   4924.340273 -14904.821715  21628.428809   -553.250732
PJ02 -29774.399354  29876.047819   4149.597769     -0.154333
PJ03 -24439.507945  25126.782737  28583.407075    -10.056699
PJ04 -33450.314506  22868.999659  -6472.875526     21.321060
PR01  -9972.245608  13347.511387 -19310.545541    108.970968
PR02   7642.104586   8599.687596 -22712.377966    -38.911621
PR03  21852.893199   -848.518117 -13026.096876    113.867360
PR04  23560.365607  -9153.228876   3380.029383    269.924125
PR05  12787.204610 -12732.272590  18025.846559    142.740868
PR07 -22086.895667   1003.646207  12813.318628     97.603782
PR08 -23449.662427   9451.194669  -3489.791301     -6.168745
PR09  -3534.467578 -21017.032052 -14065.860305    228.257996
PR11 -11690.296948  11510.742797 -19520.433898      3.236035
PR12  -6379.687214  24519.286407  -3010.993757     48.833948
PR14  10197.551358   5525.691839  22721.716218     27.483354
PR15  11708.239350 -13178.529323  18450.760364     72.844132
PR16   6377.752964 -24507.350392   3214.527026     31.927896
PR17  20213.072560  12128.502681  -9783.245060    151.607834
PR18  14003.120074   -224.488153 -21284.590445    178.593003
PR19   2862.209428 -11415.568393 -22622.934989   -303.177675
PR20 -14089.497813 -19412.370721  -8721.796000   -123.727702
PR21 -20102.407293 -13020.344899   8746.516050   -162.523283
PR22 -13520.008520   1247.481668  21628.136538    -52.687693
PR24  15162.663299  18805.130560   8241.927514    -85.480147
PR26 -23858.199755   8846.223269  -1639.763549   -132.437049
EOF
